1 08820U 76039A   03174.53296751  .00000018  00000-0  10000-3 0  9450
2 08820 109.8029 183.7722 0044521 300.1053  59.5221  6.38664378377469
